[{"OBJECT_NAME":"LEMUR-2-PETERG","OBJECT_ID":"2017-042S","EPOCH":"2026-03-09T11:34:35.656032","MEAN_MOTION":15.29611459,"ECCENTRICITY":0.00037,"INCLINATION":97.398,"RA_OF_ASC_NODE":253.6596,"ARG_OF_PERICENTER":341.6938,"MEAN_ANOMALY":18.4169,"EPHEMERIS_TYPE":0,"CLASSIFICATION_TYPE":"U","NORAD_CAT_ID":42841,"ELEMENT_SET_NO":999,"REV_AT_EPOCH":47317,"BSTAR":0.00081076471,"MEAN_MOTION_DOT":0.0002324,"MEAN_MOTION_DDOT":0},{"OBJECT_NAME":"STARLINK-30151","OBJECT_ID":"2023-079E","EPOCH":"2026-03-09T22:00:01.999584","MEAN_MOTION":15.17711074,"ECCENTRICITY":0.00012075,"INCLINATION":43,"RA_OF_ASC_NODE":105.4581,"ARG_OF_PERICENTER":287.8045,"MEAN_ANOMALY":174.4924,"EPHEMERIS_TYPE":0,"CLASSIFICATION_TYPE":"U","NORAD_CAT_ID":56827,"ELEMENT_SET_NO":999,"REV_AT_EPOCH":578,"BSTAR":0.055737382,"MEAN_MOTION_DOT":0.01254348,"MEAN_MOTION_DDOT":0}]
